KUIPER-00008            
1 63724U 25088A   25292.46915467  .00011521  00000+0  94630-3 0  9991
2 63724  51.8921  10.8619 0011223 348.3327  11.7382 14.99534044 26872
KUIPER-00009            
1 63725U 25088B   25292.91492543  .00003922  00000+0  54099-3 0  9998
2 63725  51.9031   9.1063 0012585 356.2246   3.8619 14.80087433 26937
KUIPER-00010            
1 63726U 25088C   25293.16670139 -.00028234  00000+0 -30238-2 0  9999
2 63726  51.8950 344.6466 0012214  41.5241 147.9577 14.88054471  5641
KUIPER-00011            
1 63727U 25088D   25292.86606734  .00005117  00000+0  69888-3 0  9993
2 63727  51.9021 353.3837 0013414  13.8894 346.2435 14.79947899 26904
KUIPER-00012            
1 63728U 25088E   25292.85695417  .00013654  00000+0  61581-3 0  9996
2 63728  51.8704 343.4947 0010913   7.3472 352.7666 15.21246749 26996
KUIPER-00013            
1 63729U 25088F   25293.18500207  .00011179  00000+0  14931-2 0  9992
2 63729  51.9036   9.3894 0007536 285.1870  74.8259 14.79916754 26767
KUIPER-00014            
1 63730U 25088G   25292.91300299  .00005749  00000+0  78215-3 0  9995
2 63730  51.9035  11.5577 0008175 349.9545  10.1253 14.79941096 26527
KUIPER-00015            
1 63731U 25088H   25292.47790282  .00005627  00000+0  73946-3 0  9993
2 63731  51.9007  25.1557 0009710 332.8600  27.1855 14.81440468 26756
